NORAD_CAT_ID,OBJECT_NAME,OBJECT_TYPE,EPOCH,MEAN_MOTION,ECCENTRICITY,INCLINATION,RA_OF_ASC_NODE,ARG_OF_PERICENTER,MEAN_ANOMALY,BSTAR,MEAN_MOTION_DOT,MEAN_MOTION_DDOT,TLE_LINE0,TLE_LINE1,TLE_LINE2,SEMIMAJOR_AXIS,PERIOD,APOGEE,PERIGEE,DECAYED
53712.0,STARLINK-4683,PAYLOAD,2024-05-06 10:32:56,15.08865804,0.0001326,53.2179,26.5136,85.6934,274.421,0.00066283,0.00010284,0.0,0 STARLINK-4683,1 53712U 22107N   24127.43954279  .00010284  00000-0  66283-3 0  9992,2 53712  53.2179  26.5136 0001326  85.6934 274.4210 15.08865804 92553,6917.802,95.436,540.584,538.749,0.0
53712.0,STARLINK-4683,PAYLOAD,2024-05-06 23:16:01,15.08851137,0.0001147,53.2175,24.1352,93.9111,266.2013,0.00018235,2.616e-05,0.0,0 STARLINK-4683,1 53712U 22107N   24127.96946154  .00002616  00000-0  18235-3 0  9997,2 53712  53.2175  24.1352 0001147  93.9111 266.2013 15.08851137 93097,6917.846,95.437,540.505,538.918,0.0
53712.0,STARLINK-4683,PAYLOAD,2024-05-07 02:26:47,15.08860751,0.0001372,53.2175,23.5381,94.6699,265.445,0.00046349,7.1e-05,0.0,0 STARLINK-4683,1 53712U 22107N   24128.10193886  .00007100  00000-0  46349-3 0  9990,2 53712  53.2175  23.5381 0001372  94.6699 265.4450 15.08860751 92650,6917.817,95.436,540.631,538.733,0.0
53712.0,STARLINK-4683,PAYLOAD,2024-05-07 10:23:42,15.08871791,0.0001062,53.2164,22.0524,82.582,277.5293,0.00070566,0.0001097,0.0,0 STARLINK-4683,1 53712U 22107N   24128.43313223  .00010970  00000-0  70566-3 0  9992,2 53712  53.2164  22.0524 0001062  82.5820 277.5293 15.08871791 93161,6917.783,95.436,540.383,538.914,0.0
53712.0,STARLINK-4683,PAYLOAD,2024-05-07 21:31:25,15.0882402,9.59e-05,53.2196,19.9694,89.9165,270.1937,-0.00056455,-9.257e-05,0.0,0 STARLINK-4683,1 53712U 22107N   24128.89682247 -.00009257  00000-0 -56455-3 0  9996,2 53712  53.2196  19.9694 0000959  89.9165 270.1937 15.08824020 93231,6917.929,95.439,540.458,539.131,0.0
53712.0,STARLINK-4683,PAYLOAD,2024-05-08 02:17:35,15.08835368,0.0001528,53.2188,19.0766,90.5262,269.5906,-0.00012352,-2.253e-05,0.0,0 STARLINK-4683,1 53712U 22107N   24129.09554487 -.00002253  00000-0 -12352-3 0  9990,2 53712  53.2188  19.0766 0001528  90.5262 269.5906 15.08835368 92809,6917.895,95.438,540.817,538.702,0.0
53712.0,STARLINK-4683,PAYLOAD,2024-05-08 10:14:30,15.08838556,0.0001537,53.2191,17.591,89.8367,270.2801,0.00010253,1.344e-05,0.0,0 STARLINK-4683,1 53712U 22107N   24129.42674529  .00001344  00000-0  10253-3 0  9993,2 53712  53.2191  17.5910 0001537  89.8367 270.2801 15.08838556 93316,6917.885,95.438,540.813,538.687,0.0
53712.0,STARLINK-4683,PAYLOAD,2024-05-08 21:22:13,15.08837007,0.0001498,53.2194,15.5102,94.6258,265.4906,0.00017577,2.51e-05,0.0,0 STARLINK-4683,1 53712U 22107N   24129.89042965  .00002510  00000-0  17577-3 0  9999,2 53712  53.2194  15.5102 0001498  94.6258 265.4906 15.08837007 93388,6917.89,95.438,540.791,538.718,0.0
53712.0,STARLINK-4683,PAYLOAD,2024-05-08 22:57:36,15.08838679,0.000155,53.2195,15.2115,102.6827,257.4339,0.00022961,3.368e-05,0.0,0 STARLINK-4683,1 53712U 22107N   24129.95666907  .00003368  00000-0  22961-3 0  9999,2 53712  53.2195  15.2115 0001550 102.6827 257.4339 15.08838679 93399,6917.884,95.438,540.822,538.677,0.0
53712.0,STARLINK-4683,PAYLOAD,2024-05-09 21:13:00,15.08848082,0.0001508,53.2194,11.0476,111.6454,248.4699,0.00053218,8.194e-05,0.0,0 STARLINK-4683,1 53712U 22107N   24130.88403020  .00008194  00000-0  53218-3 0  9999,2 53712  53.2194  11.0476 0001508 111.6454 248.4699 15.08848082 93074,6917.856,95.437,540.764,538.677,0.0
53712.0,STARLINK-4683,PAYLOAD,2024-05-09 22:48:23,15.0884713,0.0001452,53.2193,10.7506,109.8869,250.2279,0.00046926,7.19e-05,0.0,0 STARLINK-4683,1 53712U 22107N   24130.95027028  .00007190  00000-0  46926-3 0  9990,2 53712  53.2193  10.7506 0001452 109.8869 250.2279 15.08847130 93540,6917.859,95.437,540.728,538.719,0.0
53712.0,STARLINK-4683,PAYLOAD,2024-05-10 21:03:47,15.08845216,0.0001468,53.2191,6.5876,109.6045,250.5106,0.00022356,3.272e-05,0.0,0 STARLINK-4683,1 53712U 22107N   24131.87762995  .00003272  00000-0  22356-3 0  9999,2 53712  53.2191   6.5876 0001468 109.6045 250.5106 15.08845216 93222,6917.864,95.437,540.745,538.714,0.0
53712.0,STARLINK-4683,PAYLOAD,2024-05-11 20:54:32,15.08878671,0.0002573,53.2182,2.1296,17.4353,342.6727,0.00090513,0.00014162,0.0,0 STARLINK-4683,1 53712U 22107N   24132.87121267  .00014162  00000-0  90513-3 0  9991,2 53712  53.2182   2.1296 0002573  17.4353 342.6727 15.08878671 93375,6917.762,95.435,541.407,537.847,0.0
53712.0,STARLINK-4683,PAYLOAD,2024-05-11 22:29:56,15.08825637,0.000137,53.218,1.8273,86.7281,273.3868,-0.00078788,-0.000128,0.0,0 STARLINK-4683,1 53712U 22107N   24132.93746194 -.00012800  00000-0 -78788-3 0  9999,2 53712  53.2180   1.8273 0001370  86.7281 273.3868 15.08825637 93849,6917.924,95.438,540.737,538.842,0.0
53712.0,STARLINK-4683,PAYLOAD,2024-05-12 08:02:17,15.08752499,0.0001465,53.218,0.0532,113.3068,246.8078,-0.0028521,-0.00045286,0.0,0 STARLINK-4683,1 53712U 22107N   24133.33492958 -.00045286  00000-0 -28521-2 0  9993,2 53712  53.2180   0.0532 0001465 113.3068 246.8078 15.08752499 93442,6918.148,95.443,541.026,538.999,0.0
53712.0,STARLINK-4683,PAYLOAD,2024-05-12 20:45:24,15.08808033,0.0001646,53.2179,357.6693,113.6223,246.4942,0.0015858,0.00025018,0.0,0 STARLINK-4683,1 53712U 22107N   24133.86486221  .00025018  00000-0  15858-2 0  9995,2 53712  53.2179 357.6693 0001646 113.6223 246.4942 15.08808033 93527,6917.978,95.44,540.982,538.704,0.0
53712.0,STARLINK-4683,PAYLOAD,2024-05-12 22:20:47,15.08801031,0.0001449,53.2174,357.3726,81.146,278.9696,0.0025096,0.00039836,0.0,0 STARLINK-4683,1 53712U 22107N   24133.93111019  .00039836  00000-0  25096-2 0  9991,2 53712  53.2174 357.3726 0001449  81.1460 278.9696 15.08801031 93997,6918.0,95.44,540.867,538.862,0.0
53712.0,STARLINK-4683,PAYLOAD,2024-05-13 07:53:06,15.08846442,0.0001275,53.217,355.5877,88.2112,271.9026,0.00098779,0.0001547,0.0,0 STARLINK-4683,1 53712U 22107N   24134.32854922  .00015470  00000-0  98779-3 0  9999,2 53712  53.2170 355.5877 0001275  88.2112 271.9026 15.08846442 94052,6917.861,95.437,540.608,538.844,0.0
53712.0,STARLINK-4683,PAYLOAD,2024-05-13 23:46:57,15.0887076,0.000125,53.2168,352.6145,83.7748,276.3386,0.00099832,0.00015649,0.0,0 STARLINK-4683,1 53712U 22107N   24134.99093911  .00015649  00000-0  99832-3 0  9994,2 53712  53.2168 352.6145 0001250  83.7748 276.3386 15.08870760 93690,6917.786,95.436,540.516,538.787,0.0
53712.0,STARLINK-4683,PAYLOAD,2024-05-14 07:43:52,15.08880464,0.000117,53.2157,351.1282,84.3385,275.774,0.00093457,0.00014633,0.0,0 STARLINK-4683,1 53712U 22107N   24135.32213044  .00014633  00000-0  93457-3 0  9992,2 53712  53.2157 351.1282 0001170  84.3385 275.7740 15.08880464 94206,6917.757,95.435,540.431,538.812,0.0
53712.0,STARLINK-4683,PAYLOAD,2024-05-14 20:26:56,15.08890869,0.0002294,53.2163,348.7485,84.5513,275.5741,0.00082959,0.00012958,0.0,0 STARLINK-4683,1 53712U 22107N   24135.85203990  .00012958  00000-0  82959-3 0  9992,2 53712  53.2163 348.7485 0002294  84.5513 275.5741 15.08890869 93829,6917.725,95.434,541.177,538.003,0.0
53712.0,STARLINK-4683,PAYLOAD,2024-05-15 07:34:37,15.08891371,0.0001037,53.2168,346.6676,86.9122,273.1989,0.0010027,0.00015728,0.0,0 STARLINK-4683,1 53712U 22107N   24136.31570681  .00015728  00000-0  10027-2 0  9992,2 53712  53.2168 346.6676 0001037  86.9122 273.1989 15.08891371 93893,6917.723,95.434,540.306,538.871,0.0
53712.0,STARLINK-4683,PAYLOAD,2024-05-15 20:17:42,15.0885131,0.0001737,53.2187,344.2867,104.467,255.6515,4.0674e-05,3.59e-06,0.0,0 STARLINK-4683,1 53712U 22107N   24136.84562970  .00000359  00000-0  40674-4 0  9999,2 53712  53.2187 344.2867 0001737 104.4670 255.6515 15.08851310 93979,6917.846,95.437,540.912,538.509,0.0
53712.0,STARLINK-4683,PAYLOAD,2024-05-16 13:46:57,15.08848759,0.0002575,53.2159,341.0177,87.9779,272.1508,0.00092544,0.00014475,0.0,0 STARLINK-4683,1 53712U 22107N   24137.57427532  .00014475  00000-0  92544-3 0  9990,2 53712  53.2159 341.0177 0002575  87.9779 272.1508 15.08848759 94085,6917.854,95.437,541.5,537.937,0.0
53712.0,STARLINK-4683,PAYLOAD,2024-05-16 20:08:30,15.08843183,0.0002618,53.2196,339.8261,90.9396,269.1896,0.00074836,0.00011643,0.0,0 STARLINK-4683,1 53712U 22107N   24137.83923777  .00011643  00000-0  74836-3 0  9999,2 53712  53.2196 339.8261 0002618  90.9396 269.1896 15.08843183 94129,6917.871,95.437,541.547,537.925,0.0
53712.0,STARLINK-4683,PAYLOAD,2024-05-17 13:37:44,15.08837957,0.0001925,53.2158,336.5573,88.089,272.0323,0.00026057,3.861e-05,0.0,0 STARLINK-4683,1 53712U 22107N   24138.56788082  .00003861  00000-0  26057-3 0  9993,2 53712  53.2158 336.5573 0001925  88.0890 272.0323 15.08837957 94236,6917.887,95.438,541.083,538.42,0.0
53712.0,STARLINK-4683,PAYLOAD,2024-05-17 19:59:17,15.08833033,0.0002432,53.2178,335.3654,93.7646,266.3625,7.6218e-05,9.25e-06,0.0,0 STARLINK-4683,1 53712U 22107N   24138.83284304  .00000925  00000-0  76218-4 0  9994,2 53712  53.2178 335.3654 0002432  93.7646 266.3625 15.08833033 94738,6917.902,95.438,541.449,538.084,0.0
53712.0,STARLINK-4683,PAYLOAD,2024-05-18 13:28:31,15.08854504,0.0002994,53.216,332.0969,80.0658,280.0672,0.00043991,6.723e-05,0.0,0 STARLINK-4683,1 53712U 22107N   24139.56147824  .00006723  00000-0  43991-3 0  9993,2 53712  53.2160 332.0969 0002994  80.0658 280.0672 15.08854504 94840,6917.836,95.437,541.772,537.63,0.0
53712.0,STARLINK-4683,PAYLOAD,2024-05-18 19:50:03,15.08851513,0.0001517,53.2155,330.9059,77.6897,282.4265,0.00027761,4.134e-05,0.0,0 STARLINK-4683,1 53712U 22107N   24139.82643317  .00004134  00000-0  27761-3 0  9991,2 53712  53.2155 330.9059 0001517  77.6897 282.4265 15.08851513 94423,6917.845,95.437,540.76,538.661,0.0
53712.0,STARLINK-4683,PAYLOAD,2024-05-19 18:05:29,15.08816221,0.0001282,53.2169,326.7438,101.3171,258.7965,-0.0002478,-4.227e-05,0.0,0 STARLINK-4683,1 53712U 22107N   24140.75380810 -.00004227  00000-0 -24780-3 0  9994,2 53712  53.2169 326.7438 0001282 101.3171 258.7965 15.08816221 94566,6917.953,95.439,540.705,538.931,0.0
